[
    {"src": "http://img.hb.aicdn.com/1cad414972c5db2b8c1942289e3aeef37175006a8bb16-CBtjtX_fw", "id": "r1_c1", "name": "照相机", "placeId": "p-000-001", "placeName":"木工车间1", "companyId":"c-001", "companyName": "家具厂1" , "createAt": "2017-10-03 10:13:14" },
    {"src":"http://img.hb.aicdn.com/5fad6c3a14a9b80c4448835bb6b23ab895d18e234eff3-BPGmox_fw", "id": "r1_c2", "name": "美女背影与直升机", "placeId": "p-000-006", "placeName":"打磨车间2", "companyId":"c-001", "companyName": "家具厂1", "createAt": "2017-10-03 10:13:14" },
    {"src":"http://img.hb.aicdn.com/ff97d00944edfc706c62dd5c0e955c4099a37b407534f-BcUqf0_fw", "id": "r1_c3", "name": "日本街道", "placeId": "p-000-006", "placeName":"打磨车间2", "companyId":"c-001", "companyName": "家具厂1", "createAt": "2017-10-03 10:13:14" },
    {"src":"http://img.hb.aicdn.com/8e16efec78ac4a3684fc8999d18e3661af40fd4510a25-DDvQON_fw", "id": "r1_c4", "name": "海浪", "placeId": "p-000-006", "placeName":"打磨车间2", "companyId":"c-001", "companyName": "家具厂1", "createAt": "2017-10-03 10:13:14" },
    {"src":"http://img.hb.aicdn.com/dd4dd2d5d1fde0e05204a257be7710a2190c48a31c950-2NwZPC_fw658", "id": "r1_c5", "name": "沙滩", "placeId": "p-000-006", "placeName":"打磨车间2", "companyId":"c-001", "companyName": "家具厂1", "createAt": "2017-10-03 10:13:14" },
    {"src":"https://hbimg.b0.upaiyun.com/04c93d94a8e906b15928cdbfe3ed10d5bc6f6d33125fe-vEnssa_fw658", "id": "r2_c6", "name": "沙沙", "placeId": "p-000-006", "placeName":"打磨车间2", "companyId":"c-001", "companyName": "家具厂1", "createAt": "2017-10-03 10:13:14" },
    {"src": "http://img.hb.aicdn.com/016f2e13934397e17c3482a4529f3da1149d37fd2a99c-RVM1Gi_fw", "id": "r2_c1", "name": "火影", "placeId": "p-000-002", "placeName":"漆工车间1", "companyId":"c-001", "companyName": "家具厂1", "createAt": "2017-10-03 10:13:14" },
    {"src": "http://img.hb.aicdn.com/8c5d5f2bf6427d1b5ed8657a7ae0c9938d3465e367899-AJ0zVA_fw", "id": "r3_c1", "name": "夜猫", "placeId": "p-000-003", "placeName":"打磨车间1", "companyId":"c-001", "companyName": "家具厂1", "createAt": "2017-10-03 10:13:14" },
    {"src": "http://img.hb.aicdn.com/bd71ccac0b16bbcade255a1a8a63504d71c7dee9a8652-zBCN9d_fw", "id": "r4_c1", "name": "蛋糕", "placeId": "p-000-004", "placeName":"木工车间2", "companyId":"c-001", "companyName": "家具厂1", "createAt": "2017-10-03 10:13:14" },
    {"src": "http://img.hb.aicdn.com/37a40cb04345463858d45418ae6ed9ef319e30dc37a45-o4pQ0j_fw", "id": "r5_c1", "name": "峡谷", "placeId": "p-000-005", "placeName":"漆工车间2", "companyId":"c-001", "companyName": "家具厂1", "createAt": "2017-10-03 10:13:14" },
    {"src":"http://img.hb.aicdn.com/a1a19de5dac212a646ba6967ef565786399fb1665bd04-EEvwzR_fw", "id": "r2_c2", "name": "呆猫", "placeId": "p-000-006", "placeName":"打磨车间2", "companyId":"c-002", "companyName": "家具厂2", "createAt": "2017-10-03 10:13:14" },
    {"src":"http://img.hb.aicdn.com/06595f8044e881de3a82d691768bc8c21a2a9f3633d60-XKjC2s_fw", "id": "r3_c2", "name": "岸边公路", "placeId": "p-000-006", "placeName":"打磨车间2", "companyId":"c-002", "companyName": "家具厂2", "createAt": "2017-10-03 10:13:14" },
    {"src":"http://img.hb.aicdn.com/880787b36d45efbe05aa409c867db29a3028e02da7f9b-qxGib9_fw", "id": "r4_c2", "name": "下雨的街道", "placeId": "p-000-006", "placeName":"打磨车间2", "companyId":"c-002", "companyName": "家具厂2", "createAt": "2017-10-03 10:13:14" },
    {"src":"http://img.hb.aicdn.com/4964b97f6f6eb61a20922b40842adf0169c44e491c4b60-azX1S7_fw", "id": "r5_c2", "name": "山间列车", "placeId": "p-000-006", "placeName":"打磨车间2", "companyId":"c-002", "companyName": "家具厂2", "createAt": "2017-10-03 10:13:14" },
    {"src":"http://img.hb.aicdn.com/0e22be22b08c6f78b94283b6cfa890093ac3cae8401e7-b1ftfi_fw", "id": "r2_c3", "name": "都市街道", "placeId": "p-000-006", "placeName":"打磨车间2", "companyId":"c-001", "companyName": "家具厂1", "createAt": "2017-10-03 10:13:14" },
    {"src":"http://img.hb.aicdn.com/879f870e15f7cc0847c8ae19a5fcbe974d5904bb181d7-RGmtNU_fw", "id": "r3_c3", "name": "旷野公路", "placeId": "p-000-006", "placeName":"打磨车间2", "companyId":"c-001", "companyName": "家具厂1", "createAt": "2017-10-03 10:13:14" },
    {"src":"http://img.hb.aicdn.com/b4a8e62958555a97dc3de9ccb03284bf556c042925522-x50qGv_fw", "id": "r4_c3", "name": "水城", "placeId": "p-000-006", "placeName":"打磨车间2", "companyId":"c-001", "companyName": "家具厂1", "createAt": "2017-10-03 10:13:14" },
    {"src":"http://img.hb.aicdn.com/1ef493a15674e9fd523b248ea4ec43d2ea9ce6952ff3e-WavWKc_fw", "id": "r5_c3", "name": "休闲步道", "placeId": "p-000-006", "placeName":"打磨车间2", "companyId":"c-001", "companyName": "家具厂1", "createAt": "2017-10-03 10:13:14" },
    {"src":"http://img.hb.aicdn.com/61dfa024c8040e6a5bcb03d42928fbcb0c87c1a54e731-yc4lvV_fw", "id": "r2_c4", "name": "大海日落", "placeId": "p-000-006", "placeName":"打磨车间2", "companyId":"c-001", "companyName": "家具厂1", "createAt": "2017-10-03 10:13:14" },
    {"src":"http://img.hb.aicdn.com/6783b4d7811ad7fb87b1446c5488b91179f7608118289-hpEyP3_fw", "id": "r3_c4", "name": "浪花", "placeId": "p-000-006", "placeName":"打磨车间2", "companyId":"c-001", "companyName": "家具厂1", "createAt": "2017-10-03 10:13:14" },
    {"src":"http://img.hb.aicdn.com/7be61ba6bdb20a73be63edc387b16eec72d0bbb51c7ef-XafA07_fw", "id": "r4_c4", "name": "海沟", "placeId": "p-000-006", "placeName":"打磨车间2", "companyId":"c-001", "companyName": "家具厂1", "createAt": "2017-10-03 10:13:14" },
    {"src":"http://img.hb.aicdn.com/bd3ba3f907fe098b911947e0020615b50fc340ed2df72-WsuHuM_fw", "id": "r5_c4", "name": "海岸线", "placeId": "p-000-006", "placeName":"打磨车间2", "companyId":"c-001", "companyName": "家具厂1", "createAt": "2017-10-03 10:13:14" },
    {"src":"http://img.hb.aicdn.com/cb16c68c4d3b7a08b5e91cd351f6b723634ca3fc27d4d-m1JD8z_fw", "id": "r2_c5", "name": "滑板", "placeId": "p-000-006", "placeName":"打磨车间2", "companyId":"c-001", "companyName": "家具厂1", "createAt": "2017-10-03 10:13:14" },
    {"src":"http://img.hb.aicdn.com/e3559b6e8d7237857382050e5659a64cc0b7d696a2869-stcRXA_fw", "id": "r3_c5", "name": "金门大桥", "placeId": "p-000-006", "placeName":"打磨车间2", "companyId":"c-001", "companyName": "家具厂1", "createAt": "2017-10-03 10:13:14" },
    {"src":"http://img.hb.aicdn.com/4ea229436fcf2077502953907a6afb16d3c5cd611b8e2-0dVIeH_fw", "id": "r4_c5", "name": "转角遇到店", "placeId": "p-000-006", "placeName":"打磨车间2", "companyId":"c-001", "companyName": "家具厂1", "createAt": "2017-10-03 10:13:14" },
    {"src":"http://img.hb.aicdn.com/98c786f4314736f95a42bf927bf65a82d305a532c6258-njI6id_fw", "id": "r5_c5", "name": "转角路标", "placeId": "p-000-006", "placeName":"打磨车间2", "companyId":"c-001", "companyName": "家具厂1", "createAt": "2017-10-03 10:13:14" },
    {"src":"http://img.hb.aicdn.com/73edcfbcf352f69ea07d04ae615040fa4479846f1e2c4-cVtzRr_fw658", "id": "r1_c6", "name": "油画", "placeId": "p-000-006", "placeName":"打磨车间2", "companyId":"c-001", "companyName": "家具厂1", "createAt": "2017-10-03 10:13:14" },
    {"src":"http://img.hb.aicdn.com/aa30d771f8515112b03a586c1ba8a87e05704f588ea27-nwgkLh_fw658", "id": "r3_c6", "name": "解码语者", "placeId": "p-000-006", "placeName":"打磨车间2", "companyId":"c-001", "companyName": "家具厂1", "createAt": "2017-10-03 10:13:14" },
    {"src":"http://img.hb.aicdn.com/e6d618e401de5cf490ded4112df2122496ebdb9c228a7-4VhX4S_fw658", "id": "r4_c6", "name": "小熊猫", "placeId": "p-000-006", "placeName":"打磨车间2", "companyId":"c-001", "companyName": "家具厂1", "createAt": "2017-10-03 10:13:14" },
    {"src":"http://img.hb.aicdn.com/dca1994d81a0120f4c00b0e0298d3fa4aa73c439fc347-9JAHpF_fw658", "id": "r5_c6", "name": "二次元", "placeId": "p-000-006", "placeName":"打磨车间2", "companyId":"c-001", "companyName": "家具厂1", "createAt": "2017-10-03 10:13:14" },
    {"src":"https://imgsa.baidu.com/forum/w%3D580/sign=d9d5f0b070899e51788e3a1c72a6d990/5236af13632762d01b2c87f2abec08fa503dc64c.jpg", "id": "r11_c13", "name": "多余的", "placeId": "p-000-006", "placeName":"打磨车间2", "companyId":"c-011", "companyName": "究极家具厂1", "createAt": "2017-10-03 10:13:14" },
    {"src":"https://gss0.bdstatic.com/-4o3dSag_xI4khGkpoWK1HF6hhy/baike/c0%3Dbaike80%2C5%2C5%2C80%2C26/sign=a83e39ef56df8db1a8237436684ab631/728da9773912b31b440ff55e8e18367adab4e162.jpg", "id": "r12_c13", "name": "真青眼究极龙", "placeId": "p-000-006", "placeName":"打磨车间2", "companyId":"c-011", "companyName": "究极家具厂", "createAt": "2017-10-03 10:13:14" }
]